OBJECT_NAME,OBJECT_ID,EPOCH,MEAN_MOTION,ECCENTRICITY,INCLINATION,RA_OF_ASC_NODE,ARG_OF_PERICENTER,MEAN_ANOMALY,EPHEMERIS_TYPE,CLASSIFICATION_TYPE,NORAD_CAT_ID,ELEMENT_SET_NO,REV_AT_EPOCH,BSTAR,MEAN_MOTION_DOT,MEAN_MOTION_DDOT
TANSAT,2016-081A,2026-06-24T07:23:00.835584,14.59956131,.00192385,98.5369,175.7762,289.1884,70.7232,0,U,41898,999,50566,.80627449E-4,.337E-5,0
JILIN-1 03,2017-002B,2026-06-24T07:05:36.913632,15.41726058,.00075232,97.1948,182.2800,134.2514,225.9353,0,U,41914,999,52295,.28500462E-3,.1197E-3,0
CARTOSAT-2D,2017-008A,2026-06-24T08:06:17.536608,15.19251754,.00044445,97.4106,234.5102,202.6571,157.4468,0,U,41948,999,51866,.14643649E-3,.3019E-4,0
D-SAT,2017-036AF,2026-06-24T05:18:30.804768,15.17108240,.00829331,97.5557,154.1165,136.4429,224.3393,0,U,42794,999,49192,.29728354E-3,.6368E-4,0
IRIDIUM 113,2017-039A,2026-06-23T22:30:55.156896,14.34217629,.00021618,86.3973,319.3562,89.9903,270.1540,0,U,42803,999,47215,-.4212902E-5,.8E-7,0
NORSAT 2,2017-042D,2026-06-24T04:39:18.082656,15.22041749,.00099711,97.4042,348.5238,34.7466,325.4420,0,U,42828,999,48880,.3779334E-3,.8584E-4,0
TECHNOSAT,2017-042E,2026-06-24T03:56:10.668768,15.04998853,.00193461,97.4296,332.5568,72.5858,287.7482,0,U,42829,999,48775,.18853281E-3,.2626E-4,0
FLYING LAPTOP,2017-042G,2026-06-24T07:37:38.034048,15.01185182,.00198971,97.4720,330.5773,98.9889,261.3588,0,U,42831,999,48752,.21202642E-3,.2673E-4,0
WNISAT 1R,2017-042L,2026-06-24T03:42:43.732512,15.01787260,.0011756,97.4836,331.0279,126.0379,234.1937,0,U,42835,999,48755,.14371066E-3,.1817E-4,0
LEMUR-2-GREENBERG,2017-042N,2026-06-24T00:18:59.346432,15.31508669,.00078723,97.3823,355.6073,348.5302,11.5759,0,U,42837,999,48943,.47334146E-3,.14349E-3,0
LEMUR-2-FURIAUS,2017-042R,2026-06-24T00:16:55.616448,15.30444698,.00077215,97.3773,353.5457,47.6005,312.5888,0,U,42840,999,48925,.51691143E-3,.15169E-3,0
CORVUS BC2,2017-042X,2026-06-24T04:04:39.953568,15.06336659,.0014797,97.4075,336.2486,88.9968,271.2955,0,U,42846,999,48811,.18686131E-3,.2695E-4,0
CORVUS BC1,2017-042Y,2026-06-24T03:55:47.050464,15.06499999,.0013381,97.4102,337.0614,68.2921,291.9730,0,U,42847,999,48814,.1531632E-3,.2207E-4,0
VRSS-2,2017-060A,2026-06-24T08:20:55.298400,14.81205307,.00186676,97.6513,212.7523,77.4428,282.8872,0,U,42954,999,46951,.1211836E-3,.896E-5,0
MOHAMMED VI-A,2017-070A,2026-06-24T07:46:23.066976,14.77076716,.0001238,97.9554,247.5568,77.7604,282.3745,0,U,43005,999,46503,.6147866E-4,.383E-5,0
FENGYUN 3D,2017-072A,2026-06-24T06:22:02.773632,14.19742043,.0002401,99.0129,149.8154,50.8041,309.3347,0,U,43010,999,44599,.24723433E-3,.477E-5,0
CZ-4C R/B,2017-072C,2026-06-24T04:11:11.914944,14.58789589,.01233692,98.5799,283.4028,130.0760,231.1334,0,U,43012,999,45765,.94193233E-4,.433E-5,0
NOAA 20 (JPSS-1),2017-073A,2026-06-24T04:34:57.392256,14.19512876,.00005063,98.7772,114.5913,130.2018,229.9202,0,U,43013,999,44546,.31656711E-4,.23E-6,0
MAKERSAT 0,2017-073D,2026-06-23T15:29:28.236480,15.32275781,.01048567,97.4621,57.2152,249.5542,109.4417,0,U,43016,999,46745,.3471552E-3,.12795E-3,0
RADFXSAT (FOX-1B),2017-073E,2026-06-24T03:40:41.289024,15.12802211,.01487746,97.4700,42.2254,304.9888,53.7450,0,U,43017,999,46644,.26535655E-3,.6039E-4,0
JILIN-1 04,2017-074A,2026-06-24T06:53:10.634496,15.42604637,.00046811,97.4858,285.0893,156.3712,203.7751,0,U,43022,999,47536,.29238586E-3,.12637E-3,0
JILIN-1 05,2017-074B,2026-06-24T05:33:42.797376,15.33971901,.00050096,97.4863,281.4814,187.7274,172.3892,0,U,43023,999,47508,.23605836E-3,.768E-4,0
JILIN-1 06,2017-074C,2026-06-24T06:28:02.039520,15.33765293,.00063043,97.4791,278.5203,202.5369,157.5597,0,U,43024,999,47492,.17646821E-3,.5683E-4,0
IRIDIUM 116,2017-083C,2026-06-24T02:55:47.156448,14.34217559,.00020993,86.3970,319.1011,102.2117,257.9314,0,U,43072,999,44516,.52713539E-4,.167E-5,0
IRIDIUM 130,2017-083D,2026-06-24T03:50:34.918368,14.34216577,.00019735,86.3976,319.3613,95.7895,264.3525,0,U,43073,999,44511,.298867E-5,.28E-6,0
LKW-2,2017-084A,2026-06-24T07:19:40.312416,15.26419187,.00019046,97.1194,214.7687,159.8350,200.2965,0,U,43080,999,47277,.22158168E-3,.5701E-4,0
SUPERVIEW-1 03,2018-002A,2026-06-24T06:01:50.922912,15.39477820,.00475097,97.3133,260.0782,154.4592,205.9016,0,U,43099,999,46945,.41748182E-3,.16962E-3,0
CARTOSAT-2F,2018-004A,2026-06-24T07:43:25.358592,15.19260442,.00014806,97.4785,234.8875,175.3231,184.8018,0,U,43111,999,46841,.18360416E-3,.3802E-4,0
LKW-3,2018-006A,2026-06-24T06:55:11.792352,15.35368799,.00017477,97.6619,336.1397,285.7073,74.3977,0,U,43146,999,46980,.24171002E-3,.8219E-4,0
