
CARTOSAT-2D
1 41948U 17008A   26175.33770297  .00003019  00000+0  14644-3 0  9995
2 41948  97.4106 234.5102 0004444 202.6571 157.4468 15.19251754518662

CARTOSAT-2F
1 43111U 18004A   26175.32182128  .00003802  00000+0  18360-3 0  9994
2 43111  97.4785 234.8875 0001480 175.3231 184.8018 15.19260442468411

CORVUS BC1
1 42847U 17042Y   26175.16373901  .00002207  00000+0  15316-3 0  9999
2 42847  97.4102 337.0614 0013381  68.2921 291.9730 15.06499999488145

CORVUS BC2
1 42846U 17042X   26175.16990687  .00002695  00000+0  18686-3 0  9998
2 42846  97.4075 336.2486 0014797  88.9968 271.2955 15.06336659488113

CZ-4C R/B
1 43012U 17072C   26175.17444346  .00000433  00000+0  94193-4 0  9990
2 43012  98.5799 283.4028 0123369 130.0760 231.1334 14.58789589457655

D-SAT
1 42794U 17036AF  26175.22118987  .00006368  00000+0  29728-3 0  9995
2 42794  97.5557 154.1165 0082933 136.4429 224.3393 15.17108240491923

FENGYUN 3D
1 43010U 17072A   26175.26530988  .00000477  00000+0  24723-3 0  9995
2 43010  99.0129 149.8154 0002401  50.8041 309.3347 14.19742043445992

FLYING LAPTOP
1 42831U 17042G   26175.31780132  .00002673  00000+0  21203-3 0  9996
2 42831  97.4720 330.5773 0019897  98.9889 261.3588 15.01185182487523

IRIDIUM 113
1 42803U 17039A   26174.93813839  .00000008  00000+0 -42129-5 0  9992
2 42803  86.3973 319.3562 0002161  89.9903 270.1540 14.34217629472159

IRIDIUM 116
1 43072U 17083C   26175.12207357  .00000167  00000+0  52714-4 0  9999
2 43072  86.3970 319.1011 0002099 102.2117 257.9314 14.34217559445163

IRIDIUM 130
1 43073U 17083D   26175.16012637  .00000028  00000+0  29887-5 0  9991
2 43073  86.3976 319.3613 0001973  95.7895 264.3525 14.34216577445119

JILIN-1 03
1 41914U 17002B   26175.29556613  .00011970  00000+0  28500-3 0  9992
2 41914  97.1948 182.2800 0007523 134.2514 225.9353 15.41726058522958

JILIN-1 04
1 43022U 17074A   26175.28692864  .00012637  00000+0  29239-3 0  9992
2 43022  97.4858 285.0893 0004681 156.3712 203.7751 15.42604637475361

JILIN-1 05
1 43023U 17074B   26175.23174534  .00007680  00000+0  23606-3 0  9991
2 43023  97.4863 281.4814 0005009 187.7274 172.3892 15.33971901475084

JILIN-1 06
1 43024U 17074C   26175.26946805  .00005683  00000+0  17647-3 0  9992
2 43024  97.4791 278.5203 0006304 202.5369 157.5597 15.33765293474928

LEMUR-2-FURIAUS
1 42840U 17042R   26175.01175482  .00015169  00000+0  51691-3 0  9997
2 42840  97.3773 353.5457 0007721  47.6005 312.5888 15.30444698489254

LEMUR-2-GREENBERG
1 42837U 17042N   26175.01318688  .00014349  00000+0  47334-3 0  9998
2 42837  97.3823 355.6073 0007872 348.5302  11.5759 15.31508669489436

LKW-2
1 43080U 17084A   26175.30532769  .00005701  00000+0  22158-3 0  9994
2 43080  97.1194 214.7687 0001904 159.8350 200.2965 15.26419187472773

LKW-3
1 43146U 18006A   26175.28833093  .00008219  00000+0  24171-3 0  9997
2 43146  97.6619 336.1397 0001747 285.7073  74.3977 15.35368799469801

MAKERSAT 0
1 43016U 17073D   26174.64546570  .00012795  00000+0  34716-3 0  9996
2 43016  97.4621  57.2152 0104856 249.5542 109.4417 15.32275781467455

MOHAMMED VI-A
1 43005U 17070A   26175.32387809  .00000383  00000+0  61479-4 0  9992
2 43005  97.9554 247.5568 0001238  77.7604 282.3745 14.77076716465030

NOAA 20 (JPSS-1)
1 43013U 17073A   26175.19094204  .00000023  00000+0  31657-4 0  9999
2 43013  98.7772 114.5913 0000506 130.2018 229.9202 14.19512876445466

NORSAT 2
1 42828U 17042D   26175.19395929  .00008584  00000+0  37793-3 0  9992
2 42828  97.4042 348.5238 0009971  34.7466 325.4420 15.22041749488804

RADFXSAT (FOX-1B)
1 43017U 17073E   26175.15325566  .00006039  00000+0  26536-3 0  9999
2 43017  97.4700  42.2254 0148774 304.9888  53.7450 15.12802211466445

SUPERVIEW-1 03
1 43099U 18002A   26175.25128383  .00016962  00000+0  41748-3 0  9999
2 43099  97.3133 260.0782 0047509 154.4592 205.9016 15.39477820469450

TANSAT
1 41898U 16081A   26175.30764856  .00000337  00000+0  80627-4 0  9995
2 41898  98.5369 175.7762 0019238 289.1884  70.7232 14.59956131505667

TECHNOSAT
1 42829U 17042E   26175.16401237  .00002626  00000+0  18853-3 0  9997
2 42829  97.4296 332.5568 0019346  72.5858 287.7482 15.04998853487755

VRSS-2
1 42954U 17060A   26175.34786225  .00000896  00000+0  12118-3 0  9994
2 42954  97.6513 212.7523 0018667  77.4428 282.8872 14.81205307469512

WNISAT 1R
1 42835U 17042L   26175.15467283  .00001817  00000+0  14371-3 0  9998
2 42835  97.4836 331.0279 0011756 126.0379 234.1937 15.01787260487559
